{"type": "FeatureCollection", "features": [ {"type": "Feature", "properties": {"norad_id": 40534, "name": "GPS BIIF-9  (PRN 26)", "group": "gps-ops", "lat": -45.397292705700465, "lon": 81.52750082138412, "alt_km": 20445.367210530105, "timestamp": "2025-12-05T22:40:48.809630+00:00", "meta": {"OBJECT_NAME": "GPS BIIF-9  (PRN 26)", "OBJECT_ID": "2015-013A", "EPOCH": "2025-12-04T14:41:18.695616", "MEAN_MOTION": 2.0056296, "ECCENTRICITY": 0.0106701, "INCLINATION": 53.1991, "RA_OF_ASC_NODE": 212.2269, "ARG_OF_PERICENTER": 38.2819, "MEAN_ANOMALY": 322.5704, "EPHEMERIS_TYPE": 0, "CLASSIFICATION_TYPE": "U", "NORAD_CAT_ID": 40534, "ELEMENT_SET_NO": 999, "REV_AT_EPOCH": 7792, "BSTAR": 0, "MEAN_MOTION_DOT": 7.2e-07, "MEAN_MOTION_DDOT": 0}, "tle": {"line1": "1 40534U 15013A   25338.61202194  .00000072  00000+0  00000+0 0  9999", "line2": "2 40534  53.1991 212.2269 0106701  38.2819 322.5704  2.00562960 77924"}}, "geometry": {"type": "Point", "coordinates": [81.52750082138412, -45.397292705700465]}}, {"type": "Feature", "properties": {"norad_id": 40730, "name": "GPS BIIF-10 (PRN 08)", "group": "gps-ops", "lat": 39.80229170586717, "lon": 58.02932620635406, "alt_km": 20231.292551207887, "timestamp": "2025-12-05T22:40:48.809642+00:00", "meta": {"OBJECT_NAME": "GPS BIIF-10 (PRN 08)", "OBJECT_ID": "2015-033A", "EPOCH": "2025-12-04T06:35:41.280576", "MEAN_MOTION": 2.0056586, "ECCENTRICITY": 0.01104506, "INCLINATION": 54.1381, "RA_OF_ASC_NODE": 275.1212, "ARG_OF_PERICENTER": 26.6019, "MEAN_ANOMALY": 333.9621, "EPHEMERIS_TYPE": 0, "CLASSIFICATION_TYPE": "U", "NORAD_CAT_ID": 40730, "ELEMENT_SET_NO": 999, "REV_AT_EPOCH": 7608, "BSTAR": 0, "MEAN_MOTION_DOT": -3.2e-07, "MEAN_MOTION_DDOT": 0}, "tle": {"line1": "1 40730U 15033A   25338.27478334 -.00000032  00000+0  00000+0 0  9999", "line2": "2 40730  54.1381 275.1212 0110450  26.6019 333.9621  2.00565860 76083"}}, "geometry": {"type": "Point", "coordinates": [58.02932620635406, 39.80229170586717]}}, {"type": "Feature", "properties": {"norad_id": 41019, "name": "GPS BIIF-11 (PRN 10)", "group": "gps-ops", "lat": 55.887091517003995, "lon": 113.01012066117694, "alt_km": 20424.761975336965, "timestamp": "2025-12-05T22:40:48.809669+00:00", "meta": {"OBJECT_NAME": "GPS BIIF-11 (PRN 10)", "OBJECT_ID": "2015-062A", "EPOCH": "2025-12-03T20:03:13.853664", "MEAN_MOTION": 2.0056693, "ECCENTRICITY": 0.0110571, "INCLINATION": 56.8259, "RA_OF_ASC_NODE": 38.3468, "ARG_OF_PERICENTER": 229.69, "MEAN_ANOMALY": 129.3913, "EPHEMERIS_TYPE": 0, "CLASSIFICATION_TYPE": "U", "NORAD_CAT_ID": 41019, "ELEMENT_SET_NO": 999, "REV_AT_EPOCH": 7391, "BSTAR": 0, "MEAN_MOTION_DOT": -6.5e-07, "MEAN_MOTION_DDOT": 0}, "tle": {"line1": "1 41019U 15062A   25337.83557701 -.00000065  00000+0  00000+0 0  9995", "line2": "2 41019  56.8259  38.3468 0110571 229.6900 129.3913  2.00566930 73916"}}, "geometry": {"type": "Point", "coordinates": [113.01012066117694, 55.887091517003995]}}, {"type": "Feature", "properties": {"norad_id": 41328, "name": "GPS BIIF-12 (PRN 32)", "group": "gps-ops", "lat": 19.097126274504973, "lon": 110.92735967656724, "alt_km": 20365.993650488235, "timestamp": "2025-12-05T22:40:48.809682+00:00", "meta": {"OBJECT_NAME": "GPS BIIF-12 (PRN 32)", "OBJECT_ID": "2016-007A", "EPOCH": "2025-12-03T22:01:44.177088", "MEAN_MOTION": 2.00561076, "ECCENTRICITY": 0.0091739, "INCLINATION": 55.4011, "RA_OF_ASC_NODE": 97.2072, "ARG_OF_PERICENTER": 243.359, "MEAN_ANOMALY": 115.6713, "EPHEMERIS_TYPE": 0, "CLASSIFICATION_TYPE": "U", "NORAD_CAT_ID": 41328, "ELEMENT_SET_NO": 999, "REV_AT_EPOCH": 7192, "BSTAR": 0, "MEAN_MOTION_DOT": -7e-08, "MEAN_MOTION_DDOT": 0}, "tle": {"line1": "1 41328U 16007A   25337.91787242 -.00000007  00000+0  00000+0 0  9998", "line2": "2 41328  55.4011  97.2072 0091739 243.3590 115.6713  2.00561076 71928"}}, "geometry": {"type": "Point", "coordinates": [110.92735967656724, 19.097126274504973]}}, {"type": "Feature", "properties": {"norad_id": 43873, "name": "GPS BIII-1  (PRN 04)", "group": "gps-ops", "lat": -54.76765617010062, "lon": 23.76553274195937, "alt_km": 20177.321847998897, "timestamp": "2025-12-05T22:40:48.809694+00:00", "meta": {"OBJECT_NAME": "GPS BIII-1  (PRN 04)", "OBJECT_ID": "2018-109A", "EPOCH": "2025-12-04T13:52:59.167776", "MEAN_MOTION": 2.00553165, "ECCENTRICITY": 0.0037177, "INCLINATION": 55.5628, "RA_OF_ASC_NODE": 99.8692, "ARG_OF_PERICENTER": 194.6577, "MEAN_ANOMALY": 176.2017, "EPHEMERIS_TYPE": 0, "CLASSIFICATION_TYPE": "U", "NORAD_CAT_ID": 43873, "ELEMENT_SET_NO": 999, "REV_AT_EPOCH": 5117, "BSTAR": 0, "MEAN_MOTION_DOT": -5e-08, "MEAN_MOTION_DDOT": 0}, "tle": {"line1": "1 43873U 18109A   25338.57846259 -.00000005  00000+0  00000+0 0  9995", "line2": "2 43873  55.5628  99.8692 0037177 194.6577 176.2017  2.00553165 51170"}}, "geometry": {"type": "Point", "coordinates": [23.76553274195937, -54.76765617010062]}}, {"type": "Feature", "properties": {"norad_id": 44506, "name": "GPS BIII-2  (PRN 18)", "group": "gps-ops", "lat": 4.978571016786399, "lon": 155.41248550723304, "alt_km": 20042.19528902899, "timestamp": "2025-12-05T22:40:48.809705+00:00", "meta": {"OBJECT_NAME": "GPS BIII-2  (PRN 18)", "OBJECT_ID": "2019-056A", "EPOCH": "2025-12-02T10:49:28.764768", "MEAN_MOTION": 2.00565569, "ECCENTRICITY": 0.00578163, "INCLINATION": 55.7251, "RA_OF_ASC_NODE": 338.9617, "ARG_OF_PERICENTER": 198.402, "MEAN_ANOMALY": 332.9603, "EPHEMERIS_TYPE": 0, "CLASSIFICATION_TYPE": "U", "NORAD_CAT_ID": 44506, "ELEMENT_SET_NO": 999, "REV_AT_EPOCH": 4612, "BSTAR": 0, "MEAN_MOTION_DOT": -6.1e-07, "MEAN_MOTION_DDOT": 0}, "tle": {"line1": "1 44506U 19056A   25336.45102737 -.00000061  00000+0  00000+0 0  9994", "line2": "2 44506  55.7251 338.9617 0057816 198.4020 332.9603  2.00565569 46121"}}, "geometry": {"type": "Point", "coordinates": [155.41248550723304, 4.978571016786399]}}, {"type": "Feature", "properties": {"norad_id": 45854, "name": "GPS BIII-3  (PRN 23)", "group": "gps-ops", "lat": 47.63157214783603, "lon": 170.06245242004303, "alt_km": 20163.275214574864, "timestamp": "2025-12-05T22:40:48.809716+00:00", "meta": {"OBJECT_NAME": "GPS BIII-3  (PRN 23)", "OBJECT_ID": "2020-041A", "EPOCH": "2025-12-05T00:44:21.679872", "MEAN_MOTION": 2.00561656, "ECCENTRICITY": 0.00602963, "INCLINATION": 56.5415, "RA_OF_ASC_NODE": 36.4861, "ARG_OF_PERICENTER": 203.0901, "MEAN_ANOMALY": 335.2174, "EPHEMERIS_TYPE": 0, "CLASSIFICATION_TYPE": "U", "NORAD_CAT_ID": 45854, "ELEMENT_SET_NO": 999, "REV_AT_EPOCH": 4014, "BSTAR": 0, "MEAN_MOTION_DOT": -6.7e-07, "MEAN_MOTION_DDOT": 0}, "tle": {"line1": "1 45854U 20041A   25339.03080648 -.00000067  00000+0  00000+0 0  9996", "line2": "2 45854  56.5415  36.4861 0060296 203.0901 335.2174  2.00561656 40145"}}, "geometry": {"type": "Point", "coordinates": [170.06245242004303, 47.63157214783603]}}, {"type": "Feature", "properties": {"norad_id": 46826, "name": "GPS BIII-4  (PRN 14)", "group": "gps-ops", "lat": 53.99363045105346, "lon": -53.989445462232084, "alt_km": 20248.573036350594, "timestamp": "2025-12-05T22:40:48.809728+00:00", "meta": {"OBJECT_NAME": "GPS BIII-4  (PRN 14)", "OBJECT_ID": "2020-078A", "EPOCH": "2025-11-12T03:01:29.190720", "MEAN_MOTION": 2.00567032, "ECCENTRICITY": 0.0063911, "INCLINATION": 54.0223, "RA_OF_ASC_NODE": 219.5836, "ARG_OF_PERICENTER": 203.4986, "MEAN_ANOMALY": 326.7754, "EPHEMERIS_TYPE": 0, "CLASSIFICATION_TYPE": "U", "NORAD_CAT_ID": 46826, "ELEMENT_SET_NO": 999, "REV_AT_EPOCH": 3715, "BSTAR": 0, "MEAN_MOTION_DOT": -3.4e-07, "MEAN_MOTION_DDOT": 0}, "tle": {"line1": "1 46826U 20078A   25316.12603230 -.00000034  00000+0  00000+0 0  9993", "line2": "2 46826  54.0223 219.5836 0063911 203.4986 326.7754  2.00567032 37155"}}, "geometry": {"type": "Point", "coordinates": [-53.989445462232084, 53.99363045105346]}}, {"type": "Feature", "properties": {"norad_id": 48859, "name": "GPS BIII-5  (PRN 11)", "group": "gps-ops", "lat": -54.91448847310271, "lon": -100.88008857489073, "alt_km": 20140.080554899738, "timestamp": "2025-12-05T22:40:48.809739+00:00", "meta": {"OBJECT_NAME": "GPS BIII-5  (PRN 11)", "OBJECT_ID": "2021-054A", "EPOCH": "2025-11-30T17:12:22.002912", "MEAN_MOTION": 2.00553932, "ECCENTRICITY": 0.0024653, "INCLINATION": 55.2606, "RA_OF_ASC_NODE": 340.4377, "ARG_OF_PERICENTER": 232.9477, "MEAN_ANOMALY": 227.2059, "EPHEMERIS_TYPE": 0, "CLASSIFICATION_TYPE": "U", "NORAD_CAT_ID": 48859, "ELEMENT_SET_NO": 999, "REV_AT_EPOCH": 3277, "BSTAR": 0, "MEAN_MOTION_DOT": -5.5e-07, "MEAN_MOTION_DDOT": 0}, "tle": {"line1": "1 48859U 21054A   25334.71692133 -.00000055  00000+0  00000+0 0  9994", "line2": "2 48859  55.2606 340.4377 0024653 232.9477 227.2059  2.00553932 32777"}}, "geometry": {"type": "Point", "coordinates": [-100.88008857489073, -54.91448847310271]}}, {"type": "Feature", "properties": {"norad_id": 55268, "name": "GPS BIII-6  (PRN 28)", "group": "gps-ops", "lat": -33.860182339078285, "lon": 128.16576168890512, "alt_km": 20179.818497355667, "timestamp": "2025-12-05T22:40:48.809751+00:00", "meta": {"OBJECT_NAME": "GPS BIII-6  (PRN 28)", "OBJECT_ID": "2023-009A", "EPOCH": "2025-12-03T18:12:38.807136", "MEAN_MOTION": 2.00556312, "ECCENTRICITY": 0.00036355, "INCLINATION": 55.1062, "RA_OF_ASC_NODE": 156.1984, "ARG_OF_PERICENTER": 358.5946, "MEAN_ANOMALY": 180.1179, "EPHEMERIS_TYPE": 0, "CLASSIFICATION_TYPE": "U", "NORAD_CAT_ID": 55268, "ELEMENT_SET_NO": 999, "REV_AT_EPOCH": 2132, "BSTAR": 0, "MEAN_MOTION_DOT": 9.9e-07, "MEAN_MOTION_DDOT": 0}, "tle": {"line1": "1 55268U 23009A   25337.75878249  .00000099  00000+0  00000+0 0  9996", "line2": "2 55268  55.1062 156.1984 0003635 358.5946 180.1179  2.00556312 21327"}}, "geometry": {"type": "Point", "coordinates": [128.16576168890512, -33.860182339078285]}}]}